ONEWEB-0229             
1 48779U 21045N   26134.29228686  .00000074  00000+0  16168-3 0  9991
2 48779  87.8987 265.9439 0001925  95.2200 264.9151 13.15549452239952
ONEWEB-0228             
1 48780U 21045P   26134.32571450 -.00000007  00000+0 -52121-4 0  9995
2 48780  87.8993 265.9275 0001820  96.0134 264.1204 13.15549318239871
ONEWEB-0232             
1 48781U 21045Q   26134.30022786 -.00000014  00000+0 -71281-4 0  9993
2 48781  87.8991 265.9344 0001807  99.7382 260.3953 13.15548717240195
ONEWEB-0231             
1 48782U 21045R   26134.27803044  .00000211  00000+0  52727-3 0  9994
2 48782  87.8977 265.9550 0001711  92.9399 267.1927 13.15550013239888
ONEWEB-0234             
1 48783U 21045S   26134.31591010 -.00000308  00000+0 -85235-3 0  9996
2 48783  87.8985 265.9274 0001543 125.2317 234.8958 13.15547552240021
ONEWEB-0238             
1 48784U 21045T   26134.31621349 -.00000096  00000+0 -28819-3 0  9995
2 48784  87.8989 265.9201 0001681 111.6410 248.4899 13.15549193239927
ONEWEB-0240             
1 48785U 21045U   26133.80506023  .00000126  00000+0  29991-3 0  9994
2 48785  87.8988 266.0325 0001545  94.4070 265.7237 13.15549189239883
ONEWEB-0246             
1 48786U 21045V   26133.41922712  .00000110  00000+0  25836-3 0  9996
2 48786  87.8984 266.1148 0001925  95.8781 264.2569 13.15549281239706
ONEWEB-0210             
1 48787U 21045W   26134.30656724 -.00000115  00000+0 -34083-3 0  9994
2 48787  87.8986 265.9346 0002308  76.8811 283.2576 13.15544892239864
ONEWEB-0214             
1 48788U 21045X   26134.31528139 -.00000125  00000+0 -36638-3 0  9993
2 48788  87.8987 265.9295 0002177  91.1218 269.0162 13.15548394239835
ONEWEB-0221             
1 48789U 21045Y   26134.32239197 -.00000041  00000+0 -14383-3 0  9998
2 48789  87.8989 265.9374 0001742  93.3201 266.8129 13.15549618239927
ONEWEB-0213             
1 48790U 21045Z   26134.31131281 -.00000142  00000+0 -41205-3 0  9999
2 48790  87.8985 265.9429 0001852  89.4114 270.7229 13.15549121239987
ONEWEB-0212             
1 48791U 21045AA  26134.28834241  .00000087  00000+0  19743-3 0  9990
2 48791  87.8986 265.9420 0001860 100.7740 259.3600 13.15547692239977
ONEWEB-0227             
1 48792U 21045AB  26134.05935771 -.00000004  00000+0 -43620-4 0  9999
2 48792  87.8985 265.9890 0001822  97.5724 262.5614 13.15546809239892
ONEWEB-0226             
1 48793U 21045AC  26134.28120610  .00000178  00000+0  43839-3 0  9994
2 48793  87.8982 265.9502 0001908  90.7614 269.3735 13.15547132239897
ONEWEB-0224             
1 48794U 21045AD  26134.32082046 -.00000047  00000+0 -15788-3 0  9999
2 48794  87.8976 265.9777 0000994 110.5126 249.6111 13.15548743239829
