[{"OBJECT_NAME":"ONEWEB-0229","OBJECT_ID":"2021-045N","EPOCH":"2026-05-14T07:00:53.584704","MEAN_MOTION":13.15549452,"ECCENTRICITY":0.0001925,"INCLINATION":87.8987,"RA_OF_ASC_NODE":265.9439,"ARG_OF_PERICENTER":95.22,"MEAN_ANOMALY":264.9151,"EPHEMERIS_TYPE":0,"CLASSIFICATION_TYPE":"U","NORAD_CAT_ID":48779,"ELEMENT_SET_NO":999,"REV_AT_EPOCH":23995,"BSTAR":0.00016167999999999998,"MEAN_MOTION_DOT":7.4e-07,"MEAN_MOTION_DDOT":0.0},{"OBJECT_NAME":"ONEWEB-0228","OBJECT_ID":"2021-045P","EPOCH":"2026-05-14T07:49:01.732800","MEAN_MOTION":13.15549318,"ECCENTRICITY":0.000182,"INCLINATION":87.8993,"RA_OF_ASC_NODE":265.9275,"ARG_OF_PERICENTER":96.0134,"MEAN_ANOMALY":264.1204,"EPHEMERIS_TYPE":0,"CLASSIFICATION_TYPE":"U","NORAD_CAT_ID":48780,"ELEMENT_SET_NO":999,"REV_AT_EPOCH":23987,"BSTAR":-5.2121e-05,"MEAN_MOTION_DOT":-7e-08,"MEAN_MOTION_DDOT":0.0},{"OBJECT_NAME":"ONEWEB-0232","OBJECT_ID":"2021-045Q","EPOCH":"2026-05-14T07:12:19.687104","MEAN_MOTION":13.15548717,"ECCENTRICITY":0.0001807,"INCLINATION":87.8991,"RA_OF_ASC_NODE":265.9344,"ARG_OF_PERICENTER":99.7382,"MEAN_ANOMALY":260.3953,"EPHEMERIS_TYPE":0,"CLASSIFICATION_TYPE":"U","NORAD_CAT_ID":48781,"ELEMENT_SET_NO":999,"REV_AT_EPOCH":24019,"BSTAR":-7.128100000000001e-05,"MEAN_MOTION_DOT":-1.4e-07,"MEAN_MOTION_DDOT":0.0},{"OBJECT_NAME":"ONEWEB-0231","OBJECT_ID":"2021-045R","EPOCH":"2026-05-14T06:40:21.830016","MEAN_MOTION":13.15550013,"ECCENTRICITY":0.0001711,"INCLINATION":87.8977,"RA_OF_ASC_NODE":265.955,"ARG_OF_PERICENTER":92.9399,"MEAN_ANOMALY":267.1927,"EPHEMERIS_TYPE":0,"CLASSIFICATION_TYPE":"U","NORAD_CAT_ID":48782,"ELEMENT_SET_NO":999,"REV_AT_EPOCH":23988,"BSTAR":0.00052727,"MEAN_MOTION_DOT":2.11e-06,"MEAN_MOTION_DDOT":0.0},{"OBJECT_NAME":"ONEWEB-0234","OBJECT_ID":"2021-045S","EPOCH":"2026-05-14T07:34:54.632640","MEAN_MOTION":13.15547552,"ECCENTRICITY":0.0001543,"INCLINATION":87.8985,"RA_OF_ASC_NODE":265.9274,"ARG_OF_PERICENTER":125.2317,"MEAN_ANOMALY":234.8958,"EPHEMERIS_TYPE":0,"CLASSIFICATION_TYPE":"U","NORAD_CAT_ID":48783,"ELEMENT_SET_NO":999,"REV_AT_EPOCH":24002,"BSTAR":-0.0008523500000000001,"MEAN_MOTION_DOT":-3.08e-06,"MEAN_MOTION_DDOT":0.0},{"OBJECT_NAME":"ONEWEB-0238","OBJECT_ID":"2021-045T","EPOCH":"2026-05-14T07:35:20.845536","MEAN_MOTION":13.15549193,"ECCENTRICITY":0.0001681,"INCLINATION":87.8989,"RA_OF_ASC_NODE":265.9201,"ARG_OF_PERICENTER":111.641,"MEAN_ANOMALY":248.4899,"EPHEMERIS_TYPE":0,"CLASSIFICATION_TYPE":"U","NORAD_CAT_ID":48784,"ELEMENT_SET_NO":999,"REV_AT_EPOCH":23992,"BSTAR":-0.00028819,"MEAN_MOTION_DOT":-9.6e-07,"MEAN_MOTION_DDOT":0.0},{"OBJECT_NAME":"ONEWEB-0240","OBJECT_ID":"2021-045U","EPOCH":"2026-05-13T19:19:17.203872","MEAN_MOTION":13.15549189,"ECCENTRICITY":0.0001545,"INCLINATION":87.8988,"RA_OF_ASC_NODE":266.0325,"ARG_OF_PERICENTER":94.407,"MEAN_ANOMALY":265.7237,"EPHEMERIS_TYPE":0,"CLASSIFICATION_TYPE":"U","NORAD_CAT_ID":48785,"ELEMENT_SET_NO":999,"REV_AT_EPOCH":23988,"BSTAR":0.00029991,"MEAN_MOTION_DOT":1.26e-06,"MEAN_MOTION_DDOT":0.0},{"OBJECT_NAME":"ONEWEB-0246","OBJECT_ID":"2021-045V","EPOCH":"2026-05-13T10:03:41.223168","MEAN_MOTION":13.15549281,"ECCENTRICITY":0.0001925,"INCLINATION":87.8984,"RA_OF_ASC_NODE":266.1148,"ARG_OF_PERICENTER":95.8781,"MEAN_ANOMALY":264.2569,"EPHEMERIS_TYPE":0,"CLASSIFICATION_TYPE":"U","NORAD_CAT_ID":48786,"ELEMENT_SET_NO":999,"REV_AT_EPOCH":23970,"BSTAR":0.00025835999999999996,"MEAN_MOTION_DOT":1.1e-06,"MEAN_MOTION_DDOT":0.0},{"OBJECT_NAME":"ONEWEB-0210","OBJECT_ID":"2021-045W","EPOCH":"2026-05-14T07:21:27.409536","MEAN_MOTION":13.15544892,"ECCENTRICITY":0.0002308,"INCLINATION":87.8986,"RA_OF_ASC_NODE":265.9346,"ARG_OF_PERICENTER":76.8811,"MEAN_ANOMALY":283.2576,"EPHEMERIS_TYPE":0,"CLASSIFICATION_TYPE":"U","NORAD_CAT_ID":48787,"ELEMENT_SET_NO":999,"REV_AT_EPOCH":23986,"BSTAR":-0.00034083000000000003,"MEAN_MOTION_DOT":-1.15e-06,"MEAN_MOTION_DDOT":0.0},{"OBJECT_NAME":"ONEWEB-0214","OBJECT_ID":"2021-045X","EPOCH":"2026-05-14T07:34:00.312096","MEAN_MOTION":13.15548394,"ECCENTRICITY":0.0002177,"INCLINATION":87.8987,"RA_OF_ASC_NODE":265.9295,"ARG_OF_PERICENTER":91.1218,"MEAN_ANOMALY":269.0162,"EPHEMERIS_TYPE":0,"CLASSIFICATION_TYPE":"U","NORAD_CAT_ID":48788,"ELEMENT_SET_NO":999,"REV_AT_EPOCH":23983,"BSTAR":-0.00036637999999999997,"MEAN_MOTION_DOT":-1.25e-06,"MEAN_MOTION_DDOT":0.0},{"OBJECT_NAME":"ONEWEB-0221","OBJECT_ID":"2021-045Y","EPOCH":"2026-05-14T07:44:14.666208","MEAN_MOTION":13.15549618,"ECCENTRICITY":0.0001742,"INCLINATION":87.8989,"RA_OF_ASC_NODE":265.9374,"ARG_OF_PERICENTER":93.3201,"MEAN_ANOMALY":266.8129,"EPHEMERIS_TYPE":0,"CLASSIFICATION_TYPE":"U","NORAD_CAT_ID":48789,"ELEMENT_SET_NO":999,"REV_AT_EPOCH":23992,"BSTAR":-0.00014383,"MEAN_MOTION_DOT":-4.1e-07,"MEAN_MOTION_DDOT":0.0},{"OBJECT_NAME":"ONEWEB-0213","OBJECT_ID":"2021-045Z","EPOCH":"2026-05-14T07:28:17.426784","MEAN_MOTION":13.15549121,"ECCENTRICITY":0.0001852,"INCLINATION":87.8985,"RA_OF_ASC_NODE":265.9429,"ARG_OF_PERICENTER":89.4114,"MEAN_ANOMALY":270.7229,"EPHEMERIS_TYPE":0,"CLASSIFICATION_TYPE":"U","NORAD_CAT_ID":48790,"ELEMENT_SET_NO":999,"REV_AT_EPOCH":23998,"BSTAR":-0.00041205,"MEAN_MOTION_DOT":-1.42e-06,"MEAN_MOTION_DDOT":0.0},{"OBJECT_NAME":"ONEWEB-0212","OBJECT_ID":"2021-045AA","EPOCH":"2026-05-14T06:55:12.784224","MEAN_MOTION":13.15547692,"ECCENTRICITY":0.000186,"INCLINATION":87.8986,"RA_OF_ASC_NODE":265.942,"ARG_OF_PERICENTER":100.774,"MEAN_ANOMALY":259.36,"EPHEMERIS_TYPE":0,"CLASSIFICATION_TYPE":"U","NORAD_CAT_ID":48791,"ELEMENT_SET_NO":999,"REV_AT_EPOCH":23997,"BSTAR":0.00019742999999999999,"MEAN_MOTION_DOT":8.7e-07,"MEAN_MOTION_DDOT":0.0},{"OBJECT_NAME":"ONEWEB-0227","OBJECT_ID":"2021-045AB","EPOCH":"2026-05-14T01:25:28.506144","MEAN_MOTION":13.15546809,"ECCENTRICITY":0.0001822,"INCLINATION":87.8985,"RA_OF_ASC_NODE":265.989,"ARG_OF_PERICENTER":97.5724,"MEAN_ANOMALY":262.5614,"EPHEMERIS_TYPE":0,"CLASSIFICATION_TYPE":"U","NORAD_CAT_ID":48792,"ELEMENT_SET_NO":999,"REV_AT_EPOCH":23989,"BSTAR":-4.362e-05,"MEAN_MOTION_DOT":-4e-08,"MEAN_MOTION_DDOT":0.0},{"OBJECT_NAME":"ONEWEB-0226","OBJECT_ID":"2021-045AC","EPOCH":"2026-05-14T06:44:56.207040","MEAN_MOTION":13.15547132,"ECCENTRICITY":0.0001908,"INCLINATION":87.8982,"RA_OF_ASC_NODE":265.9502,"ARG_OF_PERICENTER":90.7614,"MEAN_ANOMALY":269.3735,"EPHEMERIS_TYPE":0,"CLASSIFICATION_TYPE":"U","NORAD_CAT_ID":48793,"ELEMENT_SET_NO":999,"REV_AT_EPOCH":23989,"BSTAR":0.00043839000000000004,"MEAN_MOTION_DOT":1.78e-06,"MEAN_MOTION_DDOT":0.0},{"OBJECT_NAME":"ONEWEB-0224","OBJECT_ID":"2021-045AD","EPOCH":"2026-05-14T07:41:58.887744","MEAN_MOTION":13.15548743,"ECCENTRICITY":9.94e-05,"INCLINATION":87.8976,"RA_OF_ASC_NODE":265.9777,"ARG_OF_PERICENTER":110.5126,"MEAN_ANOMALY":249.6111,"EPHEMERIS_TYPE":0,"CLASSIFICATION_TYPE":"U","NORAD_CAT_ID":48794,"ELEMENT_SET_NO":999,"REV_AT_EPOCH":23982,"BSTAR":-0.00015788,"MEAN_MOTION_DOT":-4.7e-07,"MEAN_MOTION_DDOT":0.0}]